SAUDISAT 1C             
1 27607U 02058C   17065.64651957  .00000057  00000-0  28876-4 0  9996
2 27607  64.5545  78.8991 0036378 144.6373 215.7153 14.75290881763858
SAUDISAT 2              
1 28371U 04025F   17066.46554028  .00000088  00000-0  31274-4 0  9993
2 28371  98.1219  23.9040 0024525 296.2890  63.5749 14.54236364673058
SAUDISAT 3              
1 31118U 07012B   17066.51815927  .00000036  00000-0  13952-4 0  9995
2 31118  97.7266  65.4554 0013676 233.2201 126.7750 14.69044339530085
PISAT                   
1 41784U 16059B   17066.47586031  .00000128  00000-0  34009-4 0  9990
2 41784  98.1804 128.9313 0033298 118.5498 241.9062 14.63184488 23707
